ONEWEB-0020             
1 45133U 20008C   24335.45149391 -.00000323  00000+0 -96108-3 0  9995
2 45133  87.8897 148.5270 0001302  92.9364 267.1912 13.10376644235295
ONEWEB-0021             
1 45134U 20008D   24335.23737871  .00000442  00000+0  12310-2 0  9990
2 45134  87.8901 148.5925 0001567  84.1957 275.9348 13.10374485235665
ONEWEB-0023             
1 45136U 20008F   24334.79170673  .00000633  00000+0  17773-2 0  9993
2 45136  87.8886 148.6689 0001679  98.8754 261.2563 13.10371927234167
ONEWEB-0024             
1 45137U 20008G   24335.44983477 -.00000296  00000+0 -88297-3 0  9998
2 45137  87.8900 148.5089 0001436  86.7916 273.3376 13.10376699235163
ONEWEB-0025             
1 45138U 20008H   24335.46813435  .00000480  00000+0  13388-2 0  9998
2 45138  87.8888 148.5059 0001987  82.0008 278.1345 13.10377010235491
ONEWEB-0026             
1 45139U 20008J   24334.71503502 -.00000410  00000+0 -11920-2 0  9992
2 45139  87.8894 133.5318 0001312  96.6074 263.5203 13.11415491237127
ONEWEB-0028             
1 45140U 20008K   24335.43310985  .00000505  00000+0  13904-2 0  9992
2 45140  87.8884 133.4222 0002063  87.4383 272.6981 13.11415325234730
ONEWEB-0032             
1 45141U 20008L   24335.25398106  .00000577  00000+0  16163-2 0  9993
2 45141  87.8873 148.5968 0001741  88.6074 271.5253 13.10370059235302
